{"fetched_at":"2026-03-29T16:36:15Z","count":15609,"tles":[{"name":"STARLINK-34337","line1":"1 64223U 25117W   26087.89323793  .00028855  00000+0  98263-3 0  9998","line2":"2 64223  53.1584 310.5623 0001317  90.1201 269.9950 15.30198629 47465","category":"Starlink"}]}